[{"OBJECT_NAME":"STARLINK-31052","OBJECT_ID":"2023-200M","EPOCH":"2026-01-03T17:48:11.091456","MEAN_MOTION":15.02534593,"ECCENTRICITY":0.00012951,"INCLINATION":43.0035,"RA_OF_ASC_NODE":163.2327,"ARG_OF_PERICENTER":264.9576,"MEAN_ANOMALY":95.1119,"EPHEMERIS_TYPE":0,"CLASSIFICATION_TYPE":"U","NORAD_CAT_ID":58600,"ELEMENT_SET_NO":999,"REV_AT_EPOCH":11382,"BSTAR":7.309951e-6,"MEAN_MOTION_DOT":-1.05e-6,"MEAN_MOTION_DDOT":0},{"OBJECT_NAME":"STARLINK-31074","OBJECT_ID":"2023-200N","EPOCH":"2026-01-03T17:43:23.389824","MEAN_MOTION":15.025359,"ECCENTRICITY":0.00014106,"INCLINATION":42.9996,"RA_OF_ASC_NODE":163.2046,"ARG_OF_PERICENTER":275.1624,"MEAN_ANOMALY":84.9057,"EPHEMERIS_TYPE":0,"CLASSIFICATION_TYPE":"U","NORAD_CAT_ID":58601,"ELEMENT_SET_NO":999,"REV_AT_EPOCH":11382,"BSTAR":4.75558e-5,"MEAN_MOTION_DOT":4.39e-6,"MEAN_MOTION_DDOT":0},{"OBJECT_NAME":"STARLINK-31071","OBJECT_ID":"2023-200P","EPOCH":"2026-01-04T01:03:06.781536","MEAN_MOTION":15.27535391,"ECCENTRICITY":5.225e-5,"INCLINATION":42.9991,"RA_OF_ASC_NODE":13.7654,"ARG_OF_PERICENTER":304.707,"MEAN_ANOMALY":55.3733,"EPHEMERIS_TYPE":0,"CLASSIFICATION_TYPE":"U","NORAD_CAT_ID":58602,"ELEMENT_SET_NO":999,"REV_AT_EPOCH":11560,"BSTAR":0.00038473728,"MEAN_MOTION_DOT":0.00010326,"MEAN_MOTION_DDOT":0},{"OBJECT_NAME":"STARLINK-31080","OBJECT_ID":"2023-200Q","EPOCH":"2026-01-03T17:38:35.442816","MEAN_MOTION":15.02535795,"ECCENTRICITY":0.00011134,"INCLINATION":42.9999,"RA_OF_ASC_NODE":163.1724,"ARG_OF_PERICENTER":269.5217,"MEAN_ANOMALY":90.5498,"EPHEMERIS_TYPE":0,"CLASSIFICATION_TYPE":"U","NORAD_CAT_ID":58603,"ELEMENT_SET_NO":999,"REV_AT_EPOCH":11363,"BSTAR":8.6924532e-5,"MEAN_MOTION_DOT":9.71e-6,"MEAN_MOTION_DDOT":0},{"OBJECT_NAME":"STARLINK-31088","OBJECT_ID":"2023-200R","EPOCH":"2026-01-03T17:33:47.710080","MEAN_MOTION":15.02538831,"ECCENTRICITY":0.00013592,"INCLINATION":43.0019,"RA_OF_ASC_NODE":163.1412,"ARG_OF_PERICENTER":272.6065,"MEAN_ANOMALY":87.4622,"EPHEMERIS_TYPE":0,"CLASSIFICATION_TYPE":"U","NORAD_CAT_ID":58604,"ELEMENT_SET_NO":999,"REV_AT_EPOCH":11382,"BSTAR":7.7670189e-5,"MEAN_MOTION_DOT":8.46e-6,"MEAN_MOTION_DDOT":0},{"OBJECT_NAME":"STARLINK-31038","OBJECT_ID":"2023-200S","EPOCH":"2026-01-03T20:35:39.927264","MEAN_MOTION":15.0253578,"ECCENTRICITY":0.0001537,"INCLINATION":43.0025,"RA_OF_ASC_NODE":162.3833,"ARG_OF_PERICENTER":272.9149,"MEAN_ANOMALY":87.1517,"EPHEMERIS_TYPE":0,"CLASSIFICATION_TYPE":"U","NORAD_CAT_ID":58605,"ELEMENT_SET_NO":999,"REV_AT_EPOCH":11384,"BSTAR":7.2187e-5,"MEAN_MOTION_DOT":7.72e-6,"MEAN_MOTION_DDOT":0},{"OBJECT_NAME":"STARLINK-31082","OBJECT_ID":"2023-200T","EPOCH":"2026-01-03T17:29:00.241728","MEAN_MOTION":15.02536602,"ECCENTRICITY":0.00014129,"INCLINATION":43.0024,"RA_OF_ASC_NODE":163.1305,"ARG_OF_PERICENTER":267.6611,"MEAN_ANOMALY":92.407,"EPHEMERIS_TYPE":0,"CLASSIFICATION_TYPE":"U","NORAD_CAT_ID":58606,"ELEMENT_SET_NO":999,"REV_AT_EPOCH":11382,"BSTAR":7.6262602e-5,"MEAN_MOTION_DOT":8.27e-6,"MEAN_MOTION_DDOT":0},{"OBJECT_NAME":"STARLINK-31069","OBJECT_ID":"2023-200U","EPOCH":"2026-01-03T12:32:14.443296","MEAN_MOTION":15.0254744,"ECCENTRICITY":0.00023907,"INCLINATION":43.0063,"RA_OF_ASC_NODE":164.1694,"ARG_OF_PERICENTER":294.0796,"MEAN_ANOMALY":65.9796,"EPHEMERIS_TYPE":0,"CLASSIFICATION_TYPE":"U","NORAD_CAT_ID":58607,"ELEMENT_SET_NO":999,"REV_AT_EPOCH":11379,"BSTAR":-0.00010576159,"MEAN_MOTION_DOT":-1.633e-5,"MEAN_MOTION_DDOT":0},{"OBJECT_NAME":"STARLINK-31067","OBJECT_ID":"2023-200V","EPOCH":"2026-01-03T20:26:05.886528","MEAN_MOTION":15.02538573,"ECCENTRICITY":0.00013858,"INCLINATION":43.0006,"RA_OF_ASC_NODE":162.3305,"ARG_OF_PERICENTER":263.9697,"MEAN_ANOMALY":96.0988,"EPHEMERIS_TYPE":0,"CLASSIFICATION_TYPE":"U","NORAD_CAT_ID":58608,"ELEMENT_SET_NO":999,"REV_AT_EPOCH":11384,"BSTAR":-6.5282234e-5,"MEAN_MOTION_DOT":-1.085e-5,"MEAN_MOTION_DDOT":0},{"OBJECT_NAME":"STARLINK-31085","OBJECT_ID":"2023-200W","EPOCH":"2026-01-03T10:46:54.849216","MEAN_MOTION":15.02536813,"ECCENTRICITY":0.00014637,"INCLINATION":43.0023,"RA_OF_ASC_NODE":164.4744,"ARG_OF_PERICENTER":277.7359,"MEAN_ANOMALY":82.3317,"EPHEMERIS_TYPE":0,"CLASSIFICATION_TYPE":"U","NORAD_CAT_ID":58609,"ELEMENT_SET_NO":999,"REV_AT_EPOCH":11378,"BSTAR":3.5341434e-5,"MEAN_MOTION_DOT":2.74e-6,"MEAN_MOTION_DDOT":0},{"OBJECT_NAME":"STARLINK-31089","OBJECT_ID":"2023-200X","EPOCH":"2026-01-03T10:32:42.382752","MEAN_MOTION":15.02533711,"ECCENTRICITY":0.00013633,"INCLINATION":43.0029,"RA_OF_ASC_NODE":165.2005,"ARG_OF_PERICENTER":268.7426,"MEAN_ANOMALY":91.3261,"EPHEMERIS_TYPE":0,"CLASSIFICATION_TYPE":"U","NORAD_CAT_ID":58610,"ELEMENT_SET_NO":999,"REV_AT_EPOCH":11377,"BSTAR":0.00017681187,"MEAN_MOTION_DOT":2.185e-5,"MEAN_MOTION_DDOT":0},{"OBJECT_NAME":"STARLINK-31061","OBJECT_ID":"2023-200Y","EPOCH":"2026-01-03T12:17:50.574624","MEAN_MOTION":15.02539404,"ECCENTRICITY":0.00012911,"INCLINATION":43,"RA_OF_ASC_NODE":164.0851,"ARG_OF_PERICENTER":264.0992,"MEAN_ANOMALY":95.9703,"EPHEMERIS_TYPE":0,"CLASSIFICATION_TYPE":"U","NORAD_CAT_ID":58611,"ELEMENT_SET_NO":999,"REV_AT_EPOCH":11379,"BSTAR":0.00010754246,"MEAN_MOTION_DOT":1.25e-5,"MEAN_MOTION_DDOT":0},{"OBJECT_NAME":"STARLINK-31054","OBJECT_ID":"2023-203B","EPOCH":"2026-01-04T05:51:50.681376","MEAN_MOTION":15.27576359,"ECCENTRICITY":0.00021955,"INCLINATION":43,"RA_OF_ASC_NODE":71.1842,"ARG_OF_PERICENTER":161.0977,"MEAN_ANOMALY":198.9956,"EPHEMERIS_TYPE":0,"CLASSIFICATION_TYPE":"U","NORAD_CAT_ID":58619,"ELEMENT_SET_NO":999,"REV_AT_EPOCH":11370,"BSTAR":-2.1079008e-5,"MEAN_MOTION_DOT":-8.42e-6,"MEAN_MOTION_DDOT":0},{"OBJECT_NAME":"STARLINK-31134","OBJECT_ID":"2023-203D","EPOCH":"2026-01-04T04:49:09.480288","MEAN_MOTION":15.27566779,"ECCENTRICITY":9.199e-5,"INCLINATION":42.9965,"RA_OF_ASC_NODE":71.7189,"ARG_OF_PERICENTER":308.3559,"MEAN_ANOMALY":51.721,"EPHEMERIS_TYPE":0,"CLASSIFICATION_TYPE":"U","NORAD_CAT_ID":58621,"ELEMENT_SET_NO":999,"REV_AT_EPOCH":11369,"BSTAR":-4.728786e-6,"MEAN_MOTION_DOT":-3.92e-6,"MEAN_MOTION_DDOT":0},{"OBJECT_NAME":"STARLINK-31133","OBJECT_ID":"2023-203E","EPOCH":"2026-01-04T05:46:18.146784","MEAN_MOTION":15.27572242,"ECCENTRICITY":0.00024945,"INCLINATION":43.0049,"RA_OF_ASC_NODE":71.164,"ARG_OF_PERICENTER":310.5458,"MEAN_ANOMALY":49.5177,"EPHEMERIS_TYPE":0,"CLASSIFICATION_TYPE":"U","NORAD_CAT_ID":58622,"ELEMENT_SET_NO":999,"REV_AT_EPOCH":11370,"BSTAR":0.00011301198,"MEAN_MOTION_DOT":2.848e-5,"MEAN_MOTION_DDOT":0},{"OBJECT_NAME":"STARLINK-31068","OBJECT_ID":"2023-203F","EPOCH":"2026-01-04T04:06:35.717472","MEAN_MOTION":15.2757067,"ECCENTRICITY":3.492e-5,"INCLINATION":43.003,"RA_OF_ASC_NODE":71.498,"ARG_OF_PERICENTER":208.4336,"MEAN_ANOMALY":151.6497,"EPHEMERIS_TYPE":0,"CLASSIFICATION_TYPE":"U","NORAD_CAT_ID":58623,"ELEMENT_SET_NO":999,"REV_AT_EPOCH":11369,"BSTAR":1.4645518e-5,"MEAN_MOTION_DOT":1.41e-6,"MEAN_MOTION_DDOT":0}]
