STARLINK-31052          
1 58600U 23200M   26003.74179504 -.00000105  00000+0  73100-5 0  9996
2 58600  43.0035 163.2327 0001295 264.9576  95.1119 15.02534593113824
STARLINK-31074          
1 58601U 23200N   26003.73846516  .00000439  00000+0  47556-4 0  9994
2 58601  42.9996 163.2046 0001410 275.1624  84.9057 15.02535900113824
STARLINK-31071          
1 58602U 23200P   26004.04382849  .00010326  00000+0  38474-3 0  9998
2 58602  42.9991  13.7654 0000522 304.7070  55.3733 15.27535391115603
STARLINK-31080          
1 58603U 23200Q   26003.73513244  .00000971  00000+0  86925-4 0  9999
2 58603  42.9999 163.1724 0001113 269.5217  90.5498 15.02535795113639
STARLINK-31088          
1 58604U 23200R   26003.73180220  .00000846  00000+0  77670-4 0  9992
2 58604  43.0019 163.1412 0001359 272.6065  87.4622 15.02538831113826
STARLINK-31038          
1 58605U 23200S   26003.85810101  .00000772  00000+0  72187-4 0  9990
2 58605  43.0025 162.3833 0001537 272.9149  87.1517 15.02535780113848
STARLINK-31082          
1 58606U 23200T   26003.72847502  .00000827  00000+0  76263-4 0  9992
2 58606  43.0024 163.1305 0001412 267.6611  92.4070 15.02536602113823
STARLINK-31069          
1 58607U 23200U   26003.52238939 -.00001633  00000+0 -10576-3 0  9991
2 58607  43.0063 164.1694 0002390 294.0796  65.9796 15.02547440113791
STARLINK-31067          
1 58608U 23200V   26003.85145702 -.00001085  00000+0 -65282-4 0  9999
2 58608  43.0006 162.3305 0001385 263.9697  96.0988 15.02538573113847
STARLINK-31085          
1 58609U 23200W   26003.44924594  .00000274  00000+0  35341-4 0  9999
2 58609  43.0023 164.4744 0001463 277.7359  82.3317 15.02536813113784
STARLINK-31089          
1 58610U 23200X   26003.43937943  .00002185  00000+0  17681-3 0  9991
2 58610  43.0029 165.2005 0001363 268.7426  91.3261 15.02533711113776
STARLINK-31061          
1 58611U 23200Y   26003.51239091  .00001250  00000+0  10754-3 0  9996
2 58611  43.0000 164.0851 0001291 264.0992  95.9703 15.02539404113797
STARLINK-31054          
1 58619U 23203B   26004.24433659 -.00000842  00000+0 -21079-4 0  9995
2 58619  43.0000  71.1842 0002195 161.0977 198.9956 15.27576359113708
STARLINK-31134          
1 58621U 23203D   26004.20080417 -.00000392  00000+0 -47288-5 0  9995
2 58621  42.9965  71.7189 0000919 308.3559  51.7210 15.27566779113695
STARLINK-31133          
1 58622U 23203E   26004.24048781  .00002848  00000+0  11301-3 0  9999
2 58622  43.0049  71.1640 0002494 310.5458  49.5177 15.27572242113701
STARLINK-31068          
1 58623U 23203F   26004.17124673  .00000141  00000+0  14646-4 0  9997
2 58623  43.0030  71.4980 0000349 208.4336 151.6497 15.27570670113690
